HYSIS                   
1 43719U 18096A   26176.19668596  .00000546  00000+0  81610-4 0  9994
2 43719  97.9838 242.8821 0001820  94.1391 266.0028 14.78628748408602
KAZSTSAT                
1 43783U 18099AB  26176.03646066  .00001810  00000+0  15043-3 0  9990
2 43783  97.4283 207.6085 0008599  48.4384 311.7576 14.99891495412488
SAUDISAT 5A             
1 43831U 18102A   26176.21932642  .00006098  00000+0  22470-3 0  9992
2 43831  97.3069 237.6454 0011306 104.7148 255.5346 15.28123491416908
SAUDISAT 5B             
1 43833U 18102C   26176.23683123  .00005949  00000+0  21755-3 0  9992
2 43833  97.3176 240.7468 0012012 106.5744 253.6816 15.28376535417020
GAOFEN-10R              
1 44622U 19066A   26176.18269413  .00001085  00000+0  14016-3 0  9994
2 44622  98.0499 129.8202 0007094 104.3795 255.8206 14.83015540363564
CARTOSAT-3              
1 44804U 19081A   26175.73143711  .00003688  00000+0  17742-3 0  9995
2 44804  97.4306 237.4776 0013864 124.8355 235.4186 15.19327117364613
GAOFEN-12 01            
1 44819U 19082A   26176.19025095  .00000357  00000+0  53359-4 0  9992
2 44819  97.8101 182.3584 0001981  62.0452 298.0961 14.80464371355278
CSG-1                   
1 44873U 19092A   26176.22011734  .00000398  00000+0  56532-4 0  9993
2 44873  97.8890 359.7063 0001453  89.8674 270.2705 14.82159239352666
NEMO-HD                 
1 46277U 20061F   26176.16267464  .00012248  00000+0  26384-3 0  9995
2 46277  97.1921 238.0352 0001914  74.8430 285.3031 15.44741116323218
SENTINEL-6A             
1 46984U 20086A   26176.12730485 -.00000063  00000+0 -10120-4 0  9997
2 46984  66.0407 118.5609 0007884 270.0819  89.9293 12.80930007261346
CAS500-1                
1 47932U 21022A   26176.15949088  .00006452  00000+0  30125-3 0  9998
2 47932  97.3897  71.2513 0003500 256.5790 103.5055 15.20155468291975
GAOFEN-12 02            
1 48079U 21026A   26176.20216841  .00000331  00000+0  50428-4 0  9994
2 48079  97.9923 174.3499 0004309 191.2162 168.8954 14.80301633282949
PLEIADES NEO 3          
1 48268U 21034A   26176.22197887  .00000643  00000+0  88313-4 0  9993
2 48268  97.8931 250.8729 0001338  90.9573 269.1794 14.81672348278849
PLEIADES NEO 4          
1 49070U 21073E   26176.18819608  .00001078  00000+0  14355-3 0  9992
2 49070  97.8934 250.8361 0001387  87.8402 272.2969 14.81678150262553
LANDSAT 9               
1 49260U 21088A   26176.16225295  .00000310  00000+0  78902-4 0  9997
2 49260  98.2278 246.2431 0001287  84.5401 275.5944 14.57102133252160
CSG-2                   
1 51444U 22008A   26176.18633185 -.00000187  00000+0 -16955-4 0  9994
2 51444  97.8891 359.6678 0001516  86.6795 273.4591 14.82158378237774
GAOFEN-12 03            
1 52912U 22069A   26176.16589620  .00000567  00000+0  81576-4 0  9995
2 52912  97.8273  63.8345 0002292  94.1077 266.0397 14.80044257215791
SWOT                    
1 54754U 22173A   26176.20549478  .00000050  00000+0  35635-4 0  9991
2 54754  77.6103  24.4853 0000286  88.4373 271.6812 14.00170523180274
GAOFEN-12 04            
1 57654U 23123A   26176.18151001  .00000888  00000+0  12350-3 0  9994
2 57654  97.9118  94.0845 0001758  80.1446 279.9964 14.80242398153813
PARS 1                  
1 59065U 24039Q   26176.21203683  .00012050  00000+0  24930-3 0  9998
2 59065  97.4821 157.3849 0011524  88.1633 272.0936 15.45877480129883
RESURS-P 4              
1 59371U 24061A   26176.16567882  .00003051  00000+0  10068-3 0  9999
2 59371  97.2749 123.9253 0002699 117.5833 242.5683 15.32172130124983
LEGION 1                
1 59625U 24081A   26176.14399769  .00004031  00000+0  20892-3 0  9993
2 59625  97.5018 253.9160 0008751 350.2252   9.8809 15.16715826118742
LEGION 2                
1 59626U 24081B   26176.17408973  .00004190  00000+0  21710-3 0  9991
2 59626  97.5018 254.0430 0010132 313.4303  46.6086 15.16693160118752
ALOS-4 (DAICHI-4)       
1 60182U 24123A   26176.20683624  .00001292  00000+0  17993-3 0  9997
2 60182  97.9216 273.2678 0001584  94.8232 265.3160 14.79470827107060
LEGION 3                
1 60452U 24146A   26176.16970964  .00004261  00000+0  23079-3 0  9994
2 60452  45.0027 347.7422 0008636 215.0626 144.9685 15.16097318103238
LEGION 4                
1 60453U 24146B   26176.10697376  .00003995  00000+0  21716-3 0  9991
2 60453  45.0016  79.9889 0012904 350.9421   9.1223 15.16088049102075
SENTINEL-2C             
1 60989U 24157A   26176.14456757  .00000082  00000+0  47985-4 0  9998
2 60989  98.5691 250.8141 0000928  87.2675 272.8614 14.30819764 94126
IONOSFERA-M 1           
1 61735U 24199A   26176.14061825  .00000051  00000+0  42403-4 0  9998
2 61735  98.7166  49.2285 0002134  99.9740 260.1679 14.22755698128831
IONOSFERA-M 2           
1 61736U 24199B   26176.17489400  .00000047  00000+0  40804-4 0  9993
2 61736  98.7164  49.1730 0000703  38.0460 322.0767 14.22758938131961
PRSC-EO1                
1 62725U 25012A   26176.16961497  .00007666  00000+0  38338-3 0  9999
2 62725  97.4226 248.4732 0005389 218.0960 141.9893 15.17698170 79405
BIOMASS                 
1 63772U 25090A   26176.07901318  .00000658  00000+0  12447-3 0  9991
2 63772  98.0741   3.2821 0001432  94.7205 265.4163 14.67536508 61840
