OBJECT_NAME,OBJECT_ID,EPOCH,MEAN_MOTION,ECCENTRICITY,INCLINATION,RA_OF_ASC_NODE,ARG_OF_PERICENTER,MEAN_ANOMALY,EPHEMERIS_TYPE,CLASSIFICATION_TYPE,NORAD_CAT_ID,ELEMENT_SET_NO,REV_AT_EPOCH,BSTAR,MEAN_MOTION_DOT,MEAN_MOTION_DDOT
HYSIS,2018-096A,2026-06-25T04:43:13.666944,14.78628748,.000182,97.9838,242.8821,94.1391,266.0028,0,U,43719,999,40860,.8161E-4,.546E-5,0
KAZSTSAT,2018-099AB,2026-06-25T00:52:30.201024,14.99891495,.0008599,97.4283,207.6085,48.4384,311.7576,0,U,43783,999,41248,.15043E-3,.181E-4,0
SAUDISAT 5A,2018-102A,2026-06-25T05:15:49.802688,15.28123491,.0011306,97.3069,237.6454,104.7148,255.5346,0,U,43831,999,41690,.2247E-3,.6098E-4,0
SAUDISAT 5B,2018-102C,2026-06-25T05:41:02.218272,15.28376535,.0012012,97.3176,240.7468,106.5744,253.6816,0,U,43833,999,41702,.21755E-3,.5949E-4,0
GAOFEN-10R,2019-066A,2026-06-25T04:23:04.772832,14.83015540,.0007094,98.0499,129.8202,104.3795,255.8206,0,U,44622,999,36356,.14016E-3,.1085E-4,0
CARTOSAT-3,2019-081A,2026-06-24T17:33:16.166304,15.19327117,.0013864,97.4306,237.4776,124.8355,235.4186,0,U,44804,999,36461,.17742E-3,.3688E-4,0
GAOFEN-12 01,2019-082A,2026-06-25T04:33:57.682080,14.80464371,.0001981,97.8101,182.3584,62.0452,298.0961,0,U,44819,999,35527,.53359E-4,.357E-5,0
CSG-1,2019-092A,2026-06-25T05:16:58.138176,14.82159239,.0001453,97.8890,359.7063,89.8674,270.2705,0,U,44873,999,35266,.56532E-4,.398E-5,0
NEMO-HD,2020-061F,2026-06-25T03:54:15.088896,15.44741116,.0001914,97.1921,238.0352,74.8430,285.3031,0,U,46277,999,32321,.26384E-3,.12248E-3,0
SENTINEL-6A,2020-086A,2026-06-25T03:03:19.139040,12.80930007,.0007884,66.0407,118.5609,270.0819,89.9293,0,U,46984,999,26134,-.1012E-4,-.63E-6,0
CAS500-1,2021-022A,2026-06-25T03:49:40.012032,15.20155468,.00035,97.3897,71.2513,256.5790,103.5055,0,U,47932,999,29197,.30125E-3,.6452E-4,0
GAOFEN-12 02,2021-026A,2026-06-25T04:51:07.350624,14.80301633,.0004309,97.9923,174.3499,191.2162,168.8954,0,U,48079,999,28294,.50428E-4,.331E-5,0
PLEIADES NEO 3,2021-034A,2026-06-25T05:19:38.974368,14.81672348,.0001338,97.8931,250.8729,90.9573,269.1794,0,U,48268,999,27884,.88313E-4,.643E-5,0
PLEIADES NEO 4,2021-073E,2026-06-25T04:31:00.141312,14.81678150,.0001387,97.8934,250.8361,87.8402,272.2969,0,U,49070,999,26255,.14355E-3,.1078E-4,0
LANDSAT 9,2021-088A,2026-06-25T03:53:38.654880,14.57102133,.0001287,98.2278,246.2431,84.5401,275.5944,0,U,49260,999,25216,.78902E-4,.31E-5,0
CSG-2,2022-008A,2026-06-25T04:28:19.071840,14.82158378,.0001516,97.8891,359.6678,86.6795,273.4591,0,U,51444,999,23777,-.16955E-4,-.187E-5,0
GAOFEN-12 03,2022-069A,2026-06-25T03:58:53.431680,14.80044257,.0002292,97.8273,63.8345,94.1077,266.0397,0,U,52912,999,21579,.81576E-4,.567E-5,0
SWOT,2022-173A,2026-06-25T04:55:54.748992,14.00170523,.0000286,77.6103,24.4853,88.4373,271.6812,0,U,54754,999,18027,.35635E-4,.5E-6,0
GAOFEN-12 04,2023-123A,2026-06-25T04:21:22.464864,14.80242398,.0001758,97.9118,94.0845,80.1446,279.9964,0,U,57654,999,15381,.1235E-3,.888E-5,0
PARS 1,2024-039Q,2026-06-25T05:05:19.982112,15.45877480,.0011524,97.4821,157.3849,88.1633,272.0936,0,U,59065,999,12988,.2493E-3,.1205E-3,0
RESURS-P 4,2024-061A,2026-06-25T03:58:34.650048,15.32172130,.0002699,97.2749,123.9253,117.5833,242.5683,0,U,59371,999,12498,.10068E-3,.3051E-4,0
LEGION 1,2024-081A,2026-06-25T03:27:21.400416,15.16715826,.0008751,97.5018,253.9160,350.2252,9.8809,0,U,59625,999,11874,.20892E-3,.4031E-4,0
LEGION 2,2024-081B,2026-06-25T04:10:41.352672,15.16693160,.0010132,97.5018,254.0430,313.4303,46.6086,0,U,59626,999,11875,.2171E-3,.419E-4,0
ALOS-4 (DAICHI-4),2024-123A,2026-06-25T04:57:50.651136,14.79470827,.0001584,97.9216,273.2678,94.8232,265.3160,0,U,60182,999,10706,.17993E-3,.1292E-4,0
LEGION 3,2024-146A,2026-06-25T04:04:22.912896,15.16097318,.0008636,45.0027,347.7422,215.0626,144.9685,0,U,60452,999,10323,.23079E-3,.4261E-4,0
LEGION 4,2024-146B,2026-06-25T02:34:02.532864,15.16088049,.0012904,45.0016,79.9889,350.9421,9.1223,0,U,60453,999,10207,.21716E-3,.3995E-4,0
SENTINEL-2C,2024-157A,2026-06-25T03:28:10.638048,14.30819764,.0000928,98.5691,250.8141,87.2675,272.8614,0,U,60989,999,9412,.47985E-4,.82E-6,0
IONOSFERA-M 1,2024-199A,2026-06-25T03:22:29.416800,14.22755698,.0002134,98.7166,49.2285,99.9740,260.1679,0,U,61735,999,12883,.42403E-4,.51E-6,0
IONOSFERA-M 2,2024-199B,2026-06-25T04:11:50.841600,14.22758938,.0000703,98.7164,49.1730,38.0460,322.0767,0,U,61736,999,13196,.40804E-4,.47E-6,0
PRSC-EO1,2025-012A,2026-06-25T04:04:14.733408,15.17698170,.0005389,97.4226,248.4732,218.0960,141.9893,0,U,62725,999,7940,.38338E-3,.7666E-4,0
BIOMASS,2025-090A,2026-06-25T01:53:46.738752,14.67536508,.0001432,98.0741,3.2821,94.7205,265.4163,0,U,63772,999,6184,.12447E-3,.658E-5,0
